MEAN_MOTION;ECCENTRICITY;INCLINATION;RA_OF_ASC_NODE;ARG_OF_PERICENTER;MEAN_ANOMALY;BSTAR;MEAN_MOTION_DOT;MEAN_MOTION_DDOT;TYPE
2.00557123;0.0081128;53.815;252.2812;33.1704;327.3309;0;5.6E-7;0;Weather
2.00557127;0.0081141;53.8148;252.2607;33.1739;327.3263;0;5.1E-7;0;Weather
2.00557131;0.0081148;53.8146;252.2401;33.1793;327.3192;0;4.5E-7;0;Weather
2.00557134;0.0081162;53.8146;252.24;33.1719;327.3265;0;4.5E-7;0;Weather
2.00557146;0.0081202;53.8139;252.1783;33.1935;327.2971;0;2.5E-7;0;Weather
2.00557155;0.0081206;53.8139;252.1783;33.1877;327.3028;0;2.5E-7;0;Weather
2.00557165;0.0081215;53.8135;252.1371;33.2041;327.2795;0;1.2E-7;0;Weather
2.00557167;0.0081205;53.8135;252.1371;33.2022;327.2813;0;1.2E-7;0;Weather
2.00557185;0.008122;53.813;252.0959;33.2151;327.2618;0;1.0E-8;0;Weather
2.0055721;0.0081216;53.8126;252.0546;33.2265;327.2452;0;-5.0E-8;0;Weather
2.00557238;0.0081241;53.8122;252.0134;33.2379;327.2309;0;-5.0E-8;0;Weather
2.00557246;0.0081254;53.8122;252.0134;33.2349;327.2339;0;-5.0E-8;0;Weather
2.00557287;0.0081275;53.8118;251.9722;33.2427;327.2257;0;-1.0E-8;0;Weather
2.00557287;0.0081275;53.8118;251.9722;33.2427;327.2257;0;-1.0E-8;0;Weather
2.00557323;0.0081293;53.8112;251.9105;33.2637;327.2079;0;9.0E-8;0;Weather
2.00557323;0.0081293;53.8112;251.9105;33.2637;327.2079;0;9.0E-8;0;Weather
2.00557357;0.0081296;53.811;251.8899;33.2608;327.2123;0;1.2E-7;0;Weather
2.00557374;0.0081305;53.8106;251.8487;33.2767;327.2;0;1.7E-7;0;Weather
2.0055739;0.0081307;53.8103;251.8282;33.2811;327.1972;0;1.9E-7;0;Weather
2.0055739;0.0081307;53.8103;251.8282;33.2811;327.1972;0;1.9E-7;0;Weather
2.00557424;0.0081342;53.8099;251.787;33.2889;327.1922;0;1.8E-7;0;Weather
2.00557438;0.0081335;53.8097;251.7664;33.2929;327.189;0;1.7E-7;0;Weather
2.00557463;0.0081335;53.8092;251.7253;33.3051;327.1773;0;1.1E-7;0;Weather
2.00557483;0.0081339;53.809;251.7047;33.3042;327.1779;0;8.0E-8;0;Weather
2.00557491;0.0081345;53.8086;251.6636;33.3212;327.1595;0;0;0;Weather
2.00557491;0.0081345;53.8086;251.6636;33.3212;327.1595;0;0;0;Weather
2.00557504;0.0081333;53.8081;251.6224;33.3334;327.1446;0;-7.0E-8;0;Weather
2.00557504;0.0081333;53.8081;251.6224;33.3334;327.1446;0;-7.0E-8;0;Weather
2.00557515;0.0081363;53.8077;251.5813;33.3462;327.1287;0;-1.1E-7;0;Weather
2.00557521;0.0081362;53.8075;251.5608;33.3519;327.1214;0;-1.3E-7;0;Weather
2.00557522;0.0081367;53.8075;251.5608;33.3511;327.1221;0;-1.3E-7;0;Weather
2.00557527;0.0081366;53.807;251.5197;33.3614;327.1086;0;-1.3E-7;0;Weather
2.00557527;0.0081366;53.807;251.5197;33.3614;327.1086;0;-1.3E-7;0;Weather
2.00557532;0.0081381;53.8064;251.458;33.3733;327.0937;0;-7.0E-8;0;Weather
2.00557532;0.0081381;53.8064;251.458;33.3733;327.0937;0;-7.0E-8;0;Weather
2.00557532;0.0081381;53.8064;251.458;33.3733;327.0937;0;-7.0E-8;0;Weather
2.00557532;0.0081381;53.8064;251.458;33.3733;327.0937;0;-7.0E-8;0;Weather
2.00557525;0.0081394;53.805;251.3347;33.3862;327.0846;0;1.6E-7;0;Weather
2.00557525;0.0081394;53.805;251.3347;33.3862;327.0846;0;1.6E-7;0;Weather
2.00557521;0.0081414;53.8048;251.3142;33.3929;327.0799;0;2.0E-7;0;Weather
2.0055752;0.0081422;53.8043;251.273;33.407;327.0702;0;2.6E-7;0;Weather
2.00557516;0.0081423;53.8043;251.273;33.4009;327.0762;0;2.6E-7;0;Weather
2.00557515;0.0081431;53.8038;251.2319;33.4142;327.0671;0;2.8E-7;0;Weather
2.00557514;0.0081426;53.8038;251.2319;33.4091;327.0722;0;2.8E-7;0;Weather
2.00557514;0.0081426;53.8038;251.2319;33.4091;327.0722;0;2.8E-7;0;Weather
2.00557513;0.0081426;53.8033;251.1908;33.4102;327.0739;0;2.6E-7;0;Weather
2.00557515;0.0081428;53.8031;251.1702;33.4111;327.0738;0;2.4E-7;0;Weather
2.0055752;0.0081441;53.8026;251.1291;33.416;327.0687;0;1.5E-7;0;Weather
2.00557524;0.0081445;53.8021;251.0879;33.4273;327.0549;0;3.0E-8;0;Weather
2.00557529;0.0081459;53.8021;251.088;33.4213;327.0609;0;3.0E-8;0;Weather
2.00557538;0.0081468;53.8017;251.0468;33.4313;327.0466;0;-1.1E-7;0;Weather
2.00557539;0.0081466;53.8017;251.0468;33.4254;327.0524;0;-1.1E-7;0;Weather
2.00557557;0.0081472;53.8012;251.0057;33.4266;327.0459;0;-2.4E-7;0;Weather
2.00557578;0.0081472;53.8007;250.9646;33.4278;327.0398;0;-3.3E-7;0;Weather
2.00557611;0.0081485;53.8002;250.9234;33.4286;327.0358;0;-3.8E-7;0;Weather
2.00557648;0.0081503;53.7996;250.8617;33.4388;327.0255;0;-3.5E-7;0;Weather
2.00557682;0.0081507;53.7991;250.8206;33.4416;327.0254;0;-2.9E-7;0;Weather
2.00557718;0.0081512;53.7987;250.7795;33.444;327.0275;0;-2.2E-7;0;Weather
2.00557725;0.0081516;53.7987;250.7795;33.4402;327.0313;0;-2.2E-7;0;Weather
2.00557749;0.0081524;53.7982;250.7384;33.4476;327.0292;0;-1.5E-7;0;Weather
2.00557764;0.0081525;53.798;250.7178;33.4496;327.0298;0;-1.3E-7;0;Weather
2.00557779;0.0081529;53.798;250.7178;33.4413;327.0381;0;-1.3E-7;0;Weather
2.00557779;0.0081529;53.798;250.7178;33.4413;327.0381;0;-1.3E-7;0;Weather
2.00557819;0.0081542;53.7973;250.6562;33.4493;327.0367;0;-1.3E-7;0;Weather
2.00557819;0.0081542;53.7973;250.6562;33.4493;327.0367;0;-1.3E-7;0;Weather
2.00557856;0.0081555;53.7967;250.6151;33.447;327.0419;0;-1.7E-7;0;Weather
2.00557856;0.0081555;53.7967;250.6151;33.447;327.0419;0;-1.7E-7;0;Weather
2.00557878;0.0081565;53.7962;250.574;33.453;327.0373;0;-2.3E-7;0;Weather
2.00557889;0.0081567;53.7958;250.5328;33.4644;327.0259;0;-3.1E-7;0;Weather
2.00557907;0.0081564;53.7955;250.5123;33.4587;327.0311;0;-3.4E-7;0;Weather
2.00557914;0.0081571;53.7951;250.4712;33.473;327.0156;0;-3.9E-7;0;Weather
2.00557922;0.0081567;53.7948;250.4507;33.4713;327.0164;0;-4.1E-7;0;Weather
2.00557922;0.0081567;53.7948;250.4507;33.4713;327.0164;0;-4.1E-7;0;Weather
2.0055793;0.0081568;53.7946;250.4301;33.4681;327.0187;0;-4.1E-7;0;Weather
2.00557932;0.0081566;53.7944;250.4096;33.4705;327.0156;0;-4.1E-7;0;Weather
2.00557932;0.0081566;53.7944;250.4096;33.4705;327.0156;0;-4.1E-7;0;Weather
2.00557941;0.0081568;53.7939;250.3685;33.4675;327.0176;0;-3.8E-7;0;Weather
2.00557944;0.0081571;53.7937;250.348;33.4686;327.0165;0;-3.5E-7;0;Weather
2.00557947;0.0081577;53.7932;250.3069;33.4694;327.0167;0;-2.8E-7;0;Weather
2.00557946;0.0081582;53.793;250.2864;33.47;327.0172;0;-2.4E-7;0;Weather
2.00557946;0.0081582;53.793;250.2864;33.47;327.0172;0;-2.4E-7;0;Weather
2.00557946;0.0081582;53.793;250.2864;33.47;327.0172;0;-2.4E-7;0;Weather
2.00557946;0.0081582;53.793;250.2864;33.47;327.0172;0;-2.4E-7;0;Weather
2.00557939;0.0081616;53.7915;250.1631;33.4886;327.0129;0;3.0E-8;0;Weather
2.00557939;0.0081616;53.7915;250.1631;33.4886;327.0129;0;3.0E-8;0;Weather
2.00557939;0.0081616;53.7915;250.1631;33.4886;327.0129;0;3.0E-8;0;Weather
2.00557936;0.0081619;53.791;250.122;33.4876;327.0199;0;8.0E-8;0;Weather
2.00557935;0.0081619;53.7909;250.122;33.4803;327.0272;0;8.0E-8;0;Weather
2.00557929;0.0081613;53.7905;250.0808;33.4782;327.0342;0;9.0E-8;0;Weather
2.00557928;0.0081611;53.7902;250.0603;33.4727;327.0415;0;7.0E-8;0;Weather
2.00557928;0.0081611;53.7902;250.0603;33.4727;327.0415;0;7.0E-8;0;Weather
2.00557934;0.0081615;53.7894;249.9986;33.4612;327.0553;0;-3.0E-8;0;Weather
2.00557934;0.0081615;53.7894;249.9986;33.4612;327.0553;0;-3.0E-8;0;Weather
2.00557943;0.0081625;53.7887;249.9369;33.4662;327.0475;0;-2.0E-7;0;Weather
2.00557948;0.0081633;53.7885;249.9164;33.4632;327.0488;0;-2.6E-7;0;Weather
2.00557963;0.008164;53.788;249.8752;33.4628;327.0454;0;-3.8E-7;0;Weather
2.00557963;0.008164;53.788;249.8752;33.4628;327.0454;0;-3.8E-7;0;Weather
2.00557963;0.008164;53.788;249.8752;33.4628;327.0454;0;-3.8E-7;0;Weather
2.00557985;0.0081652;53.7875;249.8341;33.4554;327.0494;0;-4.5E-7;0;Weather
2.0055801;0.0081665;53.787;249.793;33.4505;327.0528;0;-4.8E-7;0;Weather
2.00558036;0.0081674;53.7866;249.7518;33.4519;327.0522;0;-4.6E-7;0;Weather
2.00558071;0.0081689;53.7861;249.7107;33.4495;327.0578;0;-3.9E-7;0;Weather
2.00558097;0.0081686;53.7859;249.6901;33.4417;327.0679;0;-3.5E-7;0;Weather
2.00558133;0.0081701;53.7852;249.6284;33.4482;327.0705;0;-2.3E-7;0;Weather
2.00558149;0.0081702;53.7852;249.6285;33.4378;327.0809;0;-2.3E-7;0;Weather
2.00558164;0.0081702;53.7849;249.6079;33.4364;327.0854;0;-2.0E-7;0;Weather
2.0055819;0.0081711;53.7845;249.5668;33.4329;327.0949;0;-1.7E-7;0;Weather
2.00558181;0.0081714;53.7845;249.5668;33.4419;327.086;0;-1.7E-7;0;Weather
2.00558229;0.008173;53.7838;249.5051;33.4398;327.0951;0;-1.9E-7;0;Weather
2.00558242;0.0081733;53.7836;249.4846;33.4385;327.0979;0;-2.1E-7;0;Weather
2.00558242;0.0081733;53.7836;249.4846;33.4385;327.0979;0;-2.1E-7;0;Weather
2.00558278;0.0081746;53.7831;249.4435;33.4296;327.1087;0;-2.7E-7;0;Weather
2.005583;0.0081764;53.7824;249.3818;33.4444;327.0945;0;-3.6E-7;0;Weather
2.0055831;0.0081767;53.7822;249.3612;33.4435;327.0951;0;-3.8E-7;0;Weather
2.00558317;0.0081768;53.7819;249.3407;33.4436;327.0945;0;-4.0E-7;0;Weather
2.00558327;0.0081771;53.7817;249.3201;33.4426;327.0951;0;-4.1E-7;0;Weather
2.00558334;0.0081776;53.7815;249.2996;33.4427;327.0946;0;-4.1E-7;0;Weather
2.00558344;0.0081779;53.7811;249.2585;33.4408;327.096;0;-3.7E-7;0;Weather
2.00558348;0.0081784;53.7808;249.2379;33.4391;327.0979;0;-3.4E-7;0;Weather
2.00558354;0.0081786;53.7806;249.2174;33.4369;327.1003;0;-3.1E-7;0;Weather
2.00558357;0.0081792;53.7804;249.1968;33.4404;327.0977;0;-2.7E-7;0;Weather
2.00558358;0.0081791;53.7802;249.1763;33.435;327.1042;0;-2.2E-7;0;Weather
2.00558359;0.0081803;53.78;249.1557;33.4361;327.1046;0;-1.7E-7;0;Weather
2.00558359;0.0081803;53.78;249.1557;33.4361;327.1046;0;-1.7E-7;0;Weather
2.00558359;0.0081803;53.78;249.1557;33.4361;327.1046;0;-1.7E-7;0;Weather
2.00558354;0.008183;53.7791;249.0735;33.4176;327.1328;0;5.0E-8;0;Weather
2.00558352;0.008185;53.7784;249.0118;33.4281;327.1319;0;1.7E-7;0;Weather
2.00558348;0.008185;53.7784;249.0118;33.4148;327.1452;0;1.7E-7;0;Weather
2.00558348;0.0081855;53.7782;248.9912;33.4124;327.1506;0;1.9E-7;0;Weather
2.00558346;0.008187;53.7775;248.9295;33.4174;327.1527;0;2.0E-7;0;Weather
2.00558346;0.008187;53.7775;248.9295;33.4174;327.1527;0;2.0E-7;0;Weather
2.00558344;0.0081874;53.7771;248.8884;33.3925;327.1794;0;1.5E-7;0;Weather
2.00558347;0.0081886;53.7766;248.8472;33.3983;327.1732;0;6.0E-8;0;Weather
